QIANFAN-33              
1 61566U 24185Q   25334.86721315  .00000422  00000+0  29541-3 0  9995
2 61566  88.9802  80.1292 0006992  20.6551 339.4907 13.96537199 67504
QIANFAN-34              
1 61567U 24185R   25334.80994936  .00000511  00000+0  32467-3 0  9991
2 61567  88.9779  79.7153 0006071  27.0952 333.0543 14.02289532 67680
QIANFAN-35              
1 61568U 24185S   25334.78465066  .00000914  00000+0  36316-3 0  9990
2 61568  88.9805  78.2806 0005331 342.5835  17.5176 14.27933417 68472
QIANFAN-36              
1 61569U 24185T   25334.85776110  .00000213  00000+0  28864-3 0  9995
2 61569  88.9785  82.2802 0007695  83.5278 276.6752 13.55582222 66312
QIANFAN-37              
1 62238U 24232B   25334.84591133  .00000137  00000+0  19384-3 0  9993
2 62238  89.0032  42.5290 0002613 112.8201 247.3226 13.50974564 97561
QIANFAN-38              
1 62239U 24232C   25334.87059595  .00000124  00000+0  17344-3 0  9998
2 62239  89.0039  42.4415 0013570 222.7372 137.2725 13.50977600 97623
QIANFAN-39              
1 62240U 24232D   25334.84037420  .00000535  00000+0  22035-3 0  9999
2 62240  89.0029  38.6694 0018385 115.7401 244.5692 14.25373629 99691
QIANFAN-40              
1 62241U 24232E   25334.82944388  .00000124  00000+0  17379-3 0  9997
2 62241  89.0066  42.0269 0012364 230.9570 129.0481 13.50977219 97983
